start=new Date('2021-09-08T00:00:00.000Z').valueOf();
sats=[{"RA_OF_ASC_NODE":"135.7156","MEAN_MOTION":"15.06400189","TLE_LINE2":"2 46119  53.0547 135.7156 0001892  75.1459 284.9740 15.06400189 59570","TLE_LINE1":"1 46119U 20057C   21250.93727730  .00001167  00000-0  97223-4 0  9995","OBJECT_NAME":"STARLINK-1593","DECAY_DATE":null,"OBJECT_ID":"2020-057C","EPOCH":"2021-09-07T22:29:40.758720","SITE":"AFETR","OBJECT_TYPE":"PAYLOAD","RCS_SIZE":"LARGE","COUNTRY_CODE":"US","REV_AT_EPOCH":"5957","MEAN_ELEMENT_THEORY":"SGP4","MEAN_MOTION_DDOT":"0.0000000000000","PERIOD":"95.592","ELEMENT_SET_NO":"999","EPHEMERIS_TYPE":"0","FILE":"3110443","NORAD_CAT_ID":"46119","ECCENTRICITY":"0.00018920","BSTAR":"0.00009722300000","SEMIMAJOR_AXIS":"6925.348","GP_ID":"184282614","CLASSIFICATION_TYPE":"U","MEAN_MOTION_DOT":"0.00001167","CENTER_NAME":"EARTH","APOAPSIS":"548.523","PERIAPSIS":"545.903","REF_FRAME":"TEME","LAUNCH_DATE":"2020-08-18","TIME_SYSTEM":"UTC","ARG_OF_PERICENTER":"75.1459","MEAN_ANOMALY":"284.9740","INCLINATION":"53.0547"},{"ECCENTRICITY":"0.00019400","NORAD_CAT_ID":"46120","SEMIMAJOR_AXIS":"6925.387","BSTAR":"-0.00002562900000","CLASSIFICATION_TYPE":"U","MEAN_MOTION_DOT":"-0.00000663","GP_ID":"184283364","PERIAPSIS":"545.909","APOAPSIS":"548.596","CENTER_NAME":"EARTH","REF_FRAME":"TEME","TIME_SYSTEM":"UTC","LAUNCH_DATE":"2020-08-18","MEAN_ANOMALY":"298.9686","INCLINATION":"53.0542","ARG_OF_PERICENTER":"61.1498","RA_OF_ASC_NODE":"136.0799","MEAN_MOTION":"15.06387309","TLE_LINE2":"2 46120  53.0542 136.0799 0001940  61.1498 298.9686 15.06387309 59589","TLE_LINE1":"1 46120U 20057D   21250.85619801 -.00000663  00000-0 -25629-4 0  9990","OBJECT_NAME":"STARLINK-1601","RCS_SIZE":"LARGE","OBJECT_ID":"2020-057D","DECAY_DATE":null,"SITE":"AFETR","EPOCH":"2021-09-07T20:32:55.508064","OBJECT_TYPE":"PAYLOAD","MEAN_MOTION_DDOT":"0.0000000000000","PERIOD":"95.593","REV_AT_EPOCH":"5958","COUNTRY_CODE":"US","MEAN_ELEMENT_THEORY":"SGP4","ELEMENT_SET_NO":"999","EPHEMERIS_TYPE":"0","FILE":"3110443"},{"REF_FRAME":"TEME","LAUNCH_DATE":"2020-08-18","TIME_SYSTEM":"UTC","ARG_OF_PERICENTER":"74.5556","INCLINATION":"53.0544","MEAN_ANOMALY":"285.5610","NORAD_CAT_ID":"46121","ECCENTRICITY":"0.00016070","BSTAR":"-0.00001179600000","SEMIMAJOR_AXIS":"6925.359","GP_ID":"184283616","CLASSIFICATION_TYPE":"U","MEAN_MOTION_DOT":"-0.00000457","CENTER_NAME":"EARTH","APOAPSIS":"548.337","PERIAPSIS":"546.111","OBJECT_TYPE":"PAYLOAD","SITE":"AFETR","EPOCH":"2021-09-07T21:23:20.652000","OBJECT_ID":"2020-057E","DECAY_DATE":null,"RCS_SIZE":"LARGE","COUNTRY_CODE":"US","REV_AT_EPOCH":"5858","MEAN_ELEMENT_THEORY":"SGP4","MEAN_MOTION_DDOT":"0.0000000000000","PERIOD":"95.592","ELEMENT_SET_NO":"999","FILE":"3110443","EPHEMERIS_TYPE":"0","RA_OF_ASC_NODE":"115.9231","MEAN_MOTION":"15.06396614","TLE_LINE2":"2 46121  53.0544 115.9231 0001607  74.5556 285.5610 15.06396614 58589","TLE_LINE1":"1 46121U 20057E   21250.89121125 -.00000457  00000-0 -11796-4 0  9993","OBJECT_NAME":"STARLINK-1602"},{"SEMIMAJOR_AXIS":"6925.375","BSTAR":"-0.00005207700000","ECCENTRICITY":"0.00021120","NORAD_CAT_ID":"46122","PERIAPSIS":"545.777","CENTER_NAME":"EARTH","APOAPSIS":"548.702","MEAN_MOTION_DOT":"-0.00001057","CLASSIFICATION_TYPE":"U","GP_ID":"184284366","TIME_SYSTEM":"UTC","LAUNCH_DATE":"2020-08-18","REF_FRAME":"TEME","MEAN_ANOMALY":"283.5479","INCLINATION":"53.0539","ARG_OF_PERICENTER":"76.5746","TLE_LINE2":"2 46122  53.0539  96.1767 0002112  76.5746 283.5479 15.06391437 60114","MEAN_MOTION":"15.06391437","RA_OF_ASC_NODE":"96.1767","OBJECT_NAME":"STARLINK-1604","TLE_LINE1":"1 46122U 20057F   21250.83408054 -.00001057  00000-0 -52077-4 0  9991","MEAN_MOTION_DDOT":"0.0000000000000","PERIOD":"95.593","REV_AT_EPOCH":"6011","COUNTRY_CODE":"US","MEAN_ELEMENT_THEORY":"SGP4","RCS_SIZE":"LARGE","OBJECT_ID":"2020-057F","DECAY_DATE":null,"EPOCH":"2021-09-07T20:01:04.558656","SITE":"AFETR","OBJECT_TYPE":"PAYLOAD","EPHEMERIS_TYPE":"0","FILE":"3110443","ELEMENT_SET_NO":"999"},{"ELEMENT_SET_NO":"999","EPHEMERIS_TYPE":"0","FILE":"3110443","DECAY_DATE":null,"OBJECT_ID":"2020-057G","OBJECT_TYPE":"PAYLOAD","SITE":"AFETR","EPOCH":"2021-09-07T16:28:46.172064","RCS_SIZE":"LARGE","COUNTRY_CODE":"US","MEAN_ELEMENT_THEORY":"SGP4","REV_AT_EPOCH":"6011","MEAN_MOTION_DDOT":"0.0000000000000","PERIOD":"95.593","TLE_LINE1":"1 46123U 20057G   21250.68664551 -.00000545  00000-0 -17668-4 0  9999","OBJECT_NAME":"STARLINK-1605","RA_OF_ASC_NODE":"96.8389","MEAN_MOTION":"15.06390573","TLE_LINE2":"2 46123  53.0541  96.8389 0002062  78.5178 281.6043 15.06390573 60116","ARG_OF_PERICENTER":"78.5178","MEAN_ANOMALY":"281.6043","INCLINATION":"53.0541","REF_FRAME":"TEME","LAUNCH_DATE":"2020-08-18","TIME_SYSTEM":"UTC","GP_ID":"184283114","CLASSIFICATION_TYPE":"U","MEAN_MOTION_DOT":"-0.00000545","CENTER_NAME":"EARTH","APOAPSIS":"548.670","PERIAPSIS":"545.814","NORAD_CAT_ID":"46123","ECCENTRICITY":"0.00020620","BSTAR":"-0.00001766800000","SEMIMAJOR_AXIS":"6925.377"},{"SITE":"AFETR","EPOCH":"2021-09-07T19:50:26.763360","OBJECT_TYPE":"PAYLOAD","DECAY_DATE":null,"OBJECT_ID":"2020-057H","RCS_SIZE":"LARGE","COUNTRY_CODE":"US","REV_AT_EPOCH":"5886","MEAN_ELEMENT_THEORY":"SGP4","PERIOD":"95.592","MEAN_MOTION_DDOT":"0.0000000000000","ELEMENT_SET_NO":"999","FILE":"3110443","EPHEMERIS_TYPE":"0","RA_OF_ASC_NODE":"96.2114","TLE_LINE2":"2 46124  53.0549  96.2114 0002184  74.5330 285.5900 15.06403408 58862","MEAN_MOTION":"15.06403408","TLE_LINE1":"1 46124U 20057H   21250.82669865  .00001312  00000-0  10700-3 0  9999","OBJECT_NAME":"STARLINK-1614","REF_FRAME":"TEME","LAUNCH_DATE":"2020-08-18","TIME_SYSTEM":"UTC","ARG_OF_PERICENTER":"74.5330","INCLINATION":"53.0549","MEAN_ANOMALY":"285.5900","NORAD_CAT_ID":"46124","ECCENTRICITY":"0.00021840","BSTAR":"0.00010700000000","SEMIMAJOR_AXIS":"6925.338","GP_ID":"184282865","MEAN_MOTION_DOT":"0.00001312","CLASSIFICATION_TYPE":"U","CENTER_NAME":"EARTH","APOAPSIS":"548.716","PERIAPSIS":"545.691"},{"TIME_SYSTEM":"UTC","LAUNCH_DATE":"2020-08-18","REF_FRAME":"TEME","INCLINATION":"53.0527","MEAN_ANOMALY":"291.4988","ARG_OF_PERICENTER":"68.6214","SEMIMAJOR_AXIS":"6925.367","BSTAR":"-0.00000450590000","ECCENTRICITY":"0.00019950","NORAD_CAT_ID":"46125","PERIAPSIS":"545.850","CENTER_NAME":"EARTH","APOAPSIS":"548.613","CLASSIFICATION_TYPE":"U","MEAN_MOTION_DOT":"-0.00000349","GP_ID":"184284116","PERIOD":"95.593","MEAN_MOTION_DDOT":"0.0000000000000","COUNTRY_CODE":"US","MEAN_ELEMENT_THEORY":"SGP4","REV_AT_EPOCH":"5957","RCS_SIZE":"LARGE","EPOCH":"2021-09-07T22:35:00.112128","SITE":"AFETR","OBJECT_TYPE":"PAYLOAD","DECAY_DATE":null,"OBJECT_ID":"2020-057J","FILE":"3110443","EPHEMERIS_TYPE":"0","ELEMENT_SET_NO":"999","TLE_LINE2":"2 46125  53.0527 135.6999 0001995  68.6214 291.4988 15.06394057 59572","MEAN_MOTION":"15.06394057","RA_OF_ASC_NODE":"135.6999","OBJECT_NAME":"STARLINK-1618","TLE_LINE1":"1 46125U 20057J   21250.94097352 -.00000349  00000-0 -45059-5 0  9997"},{"OBJECT_NAME":"STARLINK-1619","TLE_LINE1":"1 46126U 20057K   21250.38439282 -.00000554  00000-0 -18281-4 0  9992","TLE_LINE2":"2 46126  53.0566 138.0120 0001876  67.9150 292.2038 15.06398056 58238","MEAN_MOTION":"15.06398056","RA_OF_ASC_NODE":"138.0120","FILE":"3110255","EPHEMERIS_TYPE":"0","ELEMENT_SET_NO":"999","PERIOD":"95.592","MEAN_MOTION_DDOT":"0.0000000000000","MEAN_ELEMENT_THEORY":"SGP4","COUNTRY_CODE":"US","REV_AT_EPOCH":"5823","RCS_SIZE":"LARGE","EPOCH":"2021-09-07T09:13:31.539648","SITE":"AFETR","OBJECT_TYPE":"PAYLOAD","OBJECT_ID":"2020-057K","DECAY_DATE":null,"PERIAPSIS":"545.920","APOAPSIS":"548.519","CENTER_NAME":"EARTH","CLASSIFICATION_TYPE":"U","MEAN_MOTION_DOT":"-0.00000554","GP_ID":"184256344","SEMIMAJOR_AXIS":"6925.355","BSTAR":"-0.00001828100000","ECCENTRICITY":"0.00018760","NORAD_CAT_ID":"46126","INCLINATION":"53.0566","MEAN_ANOMALY":"292.2038","ARG_OF_PERICENTER":"67.9150","TIME_SYSTEM":"UTC","LAUNCH_DATE":"2020-08-18","REF_FRAME":"TEME"},{"NORAD_CAT_ID":"46127","ECCENTRICITY":"0.00019940","BSTAR":"-0.00004030600000","SEMIMAJOR_AXIS":"6925.378","GP_ID":"184282615","CLASSIFICATION_TYPE":"U","MEAN_MOTION_DOT":"-0.00000882","CENTER_NAME":"EARTH","APOAPSIS":"548.624","PERIAPSIS":"545.862","REF_FRAME":"TEME","LAUNCH_DATE":"2020-08-18","TIME_SYSTEM":"UTC","ARG_OF_PERICENTER":"77.2749","INCLINATION":"53.0559","MEAN_ANOMALY":"282.8462","RA_OF_ASC_NODE":"115.8581","MEAN_MOTION":"15.06390266","TLE_LINE2":"2 46127  53.0559 115.8581 0001994  77.2749 282.8462 15.06390266 58583","TLE_LINE1":"1 46127U 20057L   21250.90595697 -.00000882  00000-0 -40306-4 0  9991","OBJECT_NAME":"STARLINK-1621","EPOCH":"2021-09-07T21:44:34.682208","SITE":"AFETR","OBJECT_TYPE":"PAYLOAD","OBJECT_ID":"2020-057L","DECAY_DATE":null,"RCS_SIZE":"LARGE","REV_AT_EPOCH":"5858","COUNTRY_CODE":"US","MEAN_ELEMENT_THEORY":"SGP4","MEAN_MOTION_DDOT":"0.0000000000000","PERIOD":"95.593","ELEMENT_SET_NO":"999","FILE":"3110443","EPHEMERIS_TYPE":"0"},{"COUNTRY_CODE":"US","REV_AT_EPOCH":"5886","MEAN_ELEMENT_THEORY":"SGP4","MEAN_MOTION_DDOT":"0.0000000000000","PERIOD":"95.593","DECAY_DATE":null,"OBJECT_ID":"2020-057M","SITE":"AFETR","OBJECT_TYPE":"PAYLOAD","EPOCH":"2021-09-07T20:48:51.279552","RCS_SIZE":"LARGE","EPHEMERIS_TYPE":"0","FILE":"3110443","ELEMENT_SET_NO":"999","MEAN_MOTION":"15.06390456","TLE_LINE2":"2 46128  53.0546  96.0309 0002283  83.8262 276.2987 15.06390456 58864","RA_OF_ASC_NODE":"96.0309","OBJECT_NAME":"STARLINK-1622","TLE_LINE1":"1 46128U 20057M   21250.86726018 -.00001641  00000-0 -91271-4 0  9991","LAUNCH_DATE":"2020-08-18","TIME_SYSTEM":"UTC","REF_FRAME":"TEME","ARG_OF_PERICENTER":"83.8262","MEAN_ANOMALY":"276.2987","INCLINATION":"53.0546","BSTAR":"-0.00009127100000","SEMIMAJOR_AXIS":"6925.378","NORAD_CAT_ID":"46128","ECCENTRICITY":"0.00022830","APOAPSIS":"548.824","CENTER_NAME":"EARTH","PERIAPSIS":"545.662","GP_ID":"184283365","MEAN_MOTION_DOT":"-0.00001641","CLASSIFICATION_TYPE":"U"}];
